NORAD_CAT_ID,OBJECT_NAME,OBJECT_TYPE,EPOCH,MEAN_MOTION,ECCENTRICITY,INCLINATION,RA_OF_ASC_NODE,ARG_OF_PERICENTER,MEAN_ANOMALY,BSTAR,MEAN_MOTION_DOT,MEAN_MOTION_DDOT,TLE_LINE0,TLE_LINE1,TLE_LINE2,SEMIMAJOR_AXIS,PERIOD,APOGEE,PERIGEE,DECAYED
56463.0,STARLINK-6051,PAYLOAD,2024-03-17 14:43:20,14.98333176,0.0002787,70.0008,165.1569,273.6826,86.4015,7.0741e-05,7.51e-06,0.0,0 STARLINK-6051,1 56463U 23064R   24077.61343746  .00000751  00000-0  70741-4 0  9999,2 56463  70.0008 165.1569 0002787 273.6826  86.4015 14.98333176 47080,6950.183,96.107,573.985,570.111,0.0
56463.0,STARLINK-6051,PAYLOAD,2024-03-18 05:08:33,14.98327211,0.0003155,70.0007,163.6426,263.2805,96.7995,3.9517e-05,3.78e-06,0.0,0 STARLINK-6051,1 56463U 23064R   24078.21427953  .00000378  00000-0  39517-4 0  9990,2 56463  70.0007 163.6426 0003155 263.2805  96.7995 14.98327211 47530,6950.202,96.107,574.259,569.874,0.0
56463.0,STARLINK-6051,PAYLOAD,2024-03-18 11:33:05,14.9832941,0.0002973,70.0006,162.9695,266.025,94.057,4.9156e-05,4.94e-06,0.0,0 STARLINK-6051,1 56463U 23064R   24078.48131836  .00000494  00000-0  49156-4 0  9990,2 56463  70.0006 162.9695 0002973 266.0250  94.0570 14.98329410 47219,6950.195,96.107,574.126,569.993,0.0
56463.0,STARLINK-6051,PAYLOAD,2024-03-19 11:35:06,14.983363,0.0002965,70.0005,160.4447,262.9197,97.1625,1.319e-05,6.4e-07,0.0,0 STARLINK-6051,1 56463U 23064R   24079.48271283  .00000064  00000-0  13190-4 0  9994,2 56463  70.0005 160.4447 0002965 262.9197  97.1625 14.98336300 47369,6950.173,96.107,574.099,569.978,0.0
56463.0,STARLINK-6051,PAYLOAD,2024-03-19 13:11:13,14.98354934,0.0002957,70.0008,160.2765,260.9652,99.1173,-0.00028065,-3.442e-05,0.0,0 STARLINK-6051,1 56463U 23064R   24079.54946757 -.00003442  00000-0 -28065-3 0  9997,2 56463  70.0008 160.2765 0002957 260.9652  99.1173 14.98354934 47732,6950.116,96.105,574.036,569.926,0.0
56463.0,STARLINK-6051,PAYLOAD,2024-03-20 10:01:00,14.98321527,0.0003126,69.9998,158.0878,270.91,89.1701,-9.1374e-05,-1.183e-05,0.0,0 STARLINK-6051,1 56463U 23064R   24080.41736555 -.00001183  00000-0 -91374-4 0  9992,2 56463  69.9998 158.0878 0003126 270.9100  89.1701 14.98321527 47867,6950.219,96.108,574.257,569.911,0.0
56463.0,STARLINK-6051,PAYLOAD,2024-03-20 13:13:16,14.98322832,0.0003059,69.9999,157.7511,267.9667,92.1142,-7.5198e-05,-9.9e-06,0.0,0 STARLINK-6051,1 56463U 23064R   24080.55088487 -.00000990  00000-0 -75198-4 0  9992,2 56463  69.9999 157.7511 0003059 267.9667  92.1142 14.98322832 47523,6950.215,96.107,574.206,569.954,0.0
56463.0,STARLINK-6051,PAYLOAD,2024-03-20 14:49:24,14.98323123,0.000299,70.0,157.5826,266.5669,93.5148,-7.1508e-05,-9.46e-06,0.0,0 STARLINK-6051,1 56463U 23064R   24080.61764480 -.00000946  00000-0 -71508-4 0  9995,2 56463  70.0000 157.5826 0002990 266.5669  93.5148 14.98323123 47532,6950.214,96.107,574.157,570.001,0.0
56463.0,STARLINK-6051,PAYLOAD,2024-03-21 05:14:36,14.98332479,0.0003229,69.9994,156.0675,269.3669,90.712,-4.5258e-05,-6.33e-06,0.0,0 STARLINK-6051,1 56463U 23064R   24081.21847952 -.00000633  00000-0 -45258-4 0  9994,2 56463  69.9994 156.0675 0003229 269.3669  90.7120 14.98332479 47986,6950.185,96.107,574.294,569.806,0.0
56463.0,STARLINK-6051,PAYLOAD,2024-03-21 13:15:16,14.98341289,0.0003084,69.9995,155.2262,270.365,89.7156,6.5907e-05,6.94e-06,0.0,0 STARLINK-6051,1 56463U 23064R   24081.55227047  .00000694  00000-0  65907-4 0  9996,2 56463  69.9995 155.2262 0003084 270.3650  89.7156 14.98341289 48034,6950.158,96.106,574.166,569.88,0.0
56463.0,STARLINK-6051,PAYLOAD,2024-03-21 14:51:24,14.98342949,0.0002983,69.9998,155.0578,269.3189,90.7628,9.7593e-05,1.072e-05,0.0,0 STARLINK-6051,1 56463U 23064R   24081.61902826  .00001072  00000-0  97593-4 0  9995,2 56463  69.9998 155.0578 0002983 269.3189  90.7628 14.98342949 47687,6950.153,96.106,574.091,569.945,0.0
56463.0,STARLINK-6051,PAYLOAD,2024-03-22 05:16:37,14.98329996,0.0002856,69.9999,153.5428,273.1727,86.9105,0.00017437,1.988e-05,0.0,0 STARLINK-6051,1 56463U 23064R   24082.21987270  .00001988  00000-0  17437-3 0  9992,2 56463  69.9999 153.5428 0002856 273.1727  86.9105 14.98329996 48130,6950.193,96.107,574.043,570.073,0.0
56463.0,STARLINK-6051,PAYLOAD,2024-03-22 13:17:16,14.98337613,0.000279,70.0,152.7012,273.5012,86.5828,0.00024732,2.86e-05,0.0,0 STARLINK-6051,1 56463U 23064R   24082.55366555  .00002860  00000-0  24732-3 0  9992,2 56463  70.0000 152.7012 0002790 273.5012  86.5828 14.98337613 47822,6950.169,96.107,573.973,570.095,0.0
56463.0,STARLINK-6051,PAYLOAD,2024-03-22 14:53:24,14.98336528,0.0002535,70.0003,152.5326,268.8691,91.2178,0.0003095,3.602e-05,0.0,0 STARLINK-6051,1 56463U 23064R   24082.62042455  .00003602  00000-0  30950-3 0  9994,2 56463  70.0003 152.5326 0002535 268.8691  91.2178 14.98336528 48194,6950.173,96.107,573.8,570.276,0.0
56463.0,STARLINK-6051,PAYLOAD,2024-03-23 05:18:38,14.9832546,0.0002633,70.0002,151.0181,269.3498,90.7359,-0.0001357,-1.711e-05,0.0,0 STARLINK-6051,1 56463U 23064R   24083.22128446 -.00001711  00000-0 -13570-3 0  9996,2 56463  70.0002 151.0181 0002633 269.3498  90.7359 14.98325460 48284,6950.207,96.107,573.902,570.242,0.0
56463.0,STARLINK-6051,PAYLOAD,2024-03-23 13:19:19,14.98321174,0.0002787,70.0002,150.1765,267.4247,92.6592,-0.0001218,-1.546e-05,0.0,0 STARLINK-6051,1 56463U 23064R   24083.55508755 -.00001546  00000-0 -12180-3 0  9999,2 56463  70.0002 150.1765 0002787 267.4247  92.6592 14.98321174 47976,6950.22,96.108,574.022,570.148,0.0
56463.0,STARLINK-6051,PAYLOAD,2024-03-24 05:20:38,14.98338203,0.0003764,69.9983,148.4911,285.3694,74.7049,-2.716e-05,-4.17e-06,0.0,0 STARLINK-6051,1 56463U 23064R   24084.22267315 -.00000417  00000-0 -27160-4 0  9999,2 56463  69.9983 148.4911 0003764 285.3694  74.7049 14.98338203 48436,6950.168,96.106,574.649,569.416,0.0
56463.0,STARLINK-6051,PAYLOAD,2024-03-24 13:21:18,14.98346545,0.0002137,70.0016,147.6524,256.0669,104.0253,0.00015212,1.723e-05,0.0,0 STARLINK-6051,1 56463U 23064R   24084.55646219  .00001723  00000-0  15212-3 0  9992,2 56463  70.0016 147.6524 0002137 256.0669 104.0253 14.98346545 48484,6950.142,96.106,573.492,570.521,0.0
56463.0,STARLINK-6051,PAYLOAD,2024-03-24 21:21:59,14.98338886,0.0001321,70.0017,146.8068,298.5257,61.5769,4.1554e-06,-4.3e-07,0.0,0 STARLINK-6051,1 56463U 23064R   24084.89027376 -.00000043  00000-0  41554-5 0  9991,2 56463  70.0017 146.8068 0001321 298.5257  61.5769 14.98338886 48531,6950.165,96.106,572.949,571.112,0.0
56463.0,STARLINK-6051,PAYLOAD,2024-03-25 05:22:40,14.98318787,0.0002322,70.0009,145.97,270.4634,89.6259,0.00011718,1.305e-05,0.0,0 STARLINK-6051,1 56463U 23064R   24085.22407948  .00001305  00000-0  11718-3 0  9994,2 56463  70.0009 145.9700 0002322 270.4634  89.6259 14.98318787 48583,6950.228,96.108,573.706,570.479,0.0
56463.0,STARLINK-6051,PAYLOAD,2024-03-25 21:24:01,14.98312259,0.0002981,69.9995,144.2848,270.2859,89.7958,0.00011824,1.317e-05,0.0,0 STARLINK-6051,1 56463U 23064R   24085.89168755  .00001317  00000-0  11824-3 0  9998,2 56463  69.9995 144.2848 0002981 270.2859  89.7958 14.98312259 48324,6950.248,96.108,574.185,570.041,0.0
56463.0,STARLINK-6051,PAYLOAD,2024-03-26 05:24:42,14.98317043,0.0002286,70.0009,143.4412,254.8808,105.2098,-0.00014048,-1.768e-05,0.0,0 STARLINK-6051,1 56463U 23064R   24086.22549232 -.00001768  00000-0 -14048-3 0  9992,2 56463  70.0009 143.4412 0002286 254.8808 105.2098 14.98317043 48731,6950.233,96.108,573.687,570.509,0.0
56463.0,STARLINK-6051,PAYLOAD,2024-03-26 13:25:23,14.98315634,0.0002593,70.0,142.6007,266.285,93.8012,-0.00024306,-2.991e-05,0.0,0 STARLINK-6051,1 56463U 23064R   24086.55929900 -.00002991  00000-0 -24306-3 0  9999,2 56463  70.0000 142.6007 0002593 266.2850  93.8012 14.98315634 48426,6950.237,96.108,573.905,570.3,0.0
56463.0,STARLINK-6051,PAYLOAD,2024-03-26 21:26:03,14.98325706,0.0002912,69.9997,141.7593,269.3914,90.6911,-0.00023291,-2.871e-05,0.0,0 STARLINK-6051,1 56463U 23064R   24086.89309377 -.00002871  00000-0 -23291-3 0  9995,2 56463  69.9997 141.7593 0002912 269.3914  90.6911 14.98325706 48477,6950.206,96.107,574.095,570.047,0.0
56463.0,STARLINK-6051,PAYLOAD,2024-03-27 05:26:44,14.98307782,0.0002821,69.9991,140.9187,270.3139,89.7697,2.2772e-05,1.79e-06,0.0,0 STARLINK-6051,1 56463U 23064R   24087.22690287  .00000179  00000-0  22772-4 0  9997,2 56463  69.9991 140.9187 0002821 270.3139  89.7697 14.98307782 48880,6950.262,96.108,574.087,570.166,0.0
56463.0,STARLINK-6051,PAYLOAD,2024-03-27 13:27:24,14.98315075,0.0003075,69.9987,140.0763,270.9696,89.1111,6.3247e-05,6.61e-06,0.0,0 STARLINK-6051,1 56463U 23064R   24087.56070053  .00000661  00000-0  63247-4 0  9995,2 56463  69.9987 140.0763 0003075 270.9696  89.1111 14.98315075 48937,6950.239,96.108,574.241,569.967,0.0
56463.0,STARLINK-6051,PAYLOAD,2024-03-28 11:53:16,14.98328119,0.0002837,69.9993,137.7203,271.9,88.1834,0.0003034,3.529e-05,0.0,0 STARLINK-6051,1 56463U 23064R   24088.49533367  .00003529  00000-0  30340-3 0  9993,2 56463  69.9993 137.7203 0002837 271.9000  88.1834 14.98328119 49071,6950.199,96.107,574.035,570.092,0.0
56463.0,STARLINK-6051,PAYLOAD,2024-03-28 19:53:56,14.98333361,0.0002589,69.9999,136.88,267.4217,92.6645,0.00032277,3.761e-05,0.0,0 STARLINK-6051,1 56463U 23064R   24088.82913016  .00003761  00000-0  32277-3 0  9992,2 56463  69.9999 136.8800 0002589 267.4217  92.6645 14.98333361 48764,6950.182,96.107,573.847,570.248,0.0
56463.0,STARLINK-6051,PAYLOAD,2024-03-29 05:30:44,14.98348783,0.0002714,69.9989,135.8685,273.5268,86.5581,0.00028871,3.355e-05,0.0,0 STARLINK-6051,1 56463U 23064R   24089.22967842  .00003355  00000-0  28871-3 0  9997,2 56463  69.9989 135.8685 0002714 273.5268  86.5581 14.98348783 49189,6950.135,96.106,573.886,570.114,0.0
56463.0,STARLINK-6051,PAYLOAD,2024-03-29 11:55:15,14.98349825,0.0003082,69.9991,135.1954,281.3967,78.6846,0.00039594,4.637e-05,0.0,0 STARLINK-6051,1 56463U 23064R   24089.49671272  .00004637  00000-0  39594-3 0  9993,2 56463  69.9991 135.1954 0003082 281.3967  78.6846 14.98349825 48864,6950.132,96.106,574.139,569.855,0.0
